[{"OBJECT_NAME":"STARLINK-31625","OBJECT_ID":"2024-068D","EPOCH":"2026-03-09T07:25:14.902464","MEAN_MOTION":15.27570468,"ECCENTRICITY":0.00014596,"INCLINATION":43.0049,"RA_OF_ASC_NODE":36.7415,"ARG_OF_PERICENTER":268.0898,"MEAN_ANOMALY":91.9787,"EPHEMERIS_TYPE":0,"CLASSIFICATION_TYPE":"U","NORAD_CAT_ID":59458,"ELEMENT_SET_NO":999,"REV_AT_EPOCH":10846,"BSTAR":-6.8041542e-5,"MEAN_MOTION_DOT":-2.133e-5,"MEAN_MOTION_DDOT":0},{"OBJECT_NAME":"COSMOS 2535 DEB","OBJECT_ID":"2019-039M","EPOCH":"2026-03-08T03:25:35.903424","MEAN_MOTION":15.28322551,"ECCENTRICITY":0.0014917,"INCLINATION":97.5619,"RA_OF_ASC_NODE":139.2722,"ARG_OF_PERICENTER":329.0964,"MEAN_ANOMALY":30.9396,"EPHEMERIS_TYPE":0,"CLASSIFICATION_TYPE":"U","NORAD_CAT_ID":44641,"ELEMENT_SET_NO":999,"REV_AT_EPOCH":35167,"BSTAR":0.0011539757,"MEAN_MOTION_DOT":0.0003196,"MEAN_MOTION_DDOT":0}]
